{
  "type": "FeatureCollection",
  "features": [
    {
      "type": "Feature",
      "properties": {
        "norad_id": 54741,
        "name": "GALAXY 35 (G-35)",
        "group": "intelsat",
        "lat": -0.0026548415466657307,
        "lon": 160.28006069781284,
        "alt_km": 35791.127591034856,
        "timestamp": "2025-12-27T10:28:58.458273+00:00",
        "meta_object_name": "GALAXY 35 (G-35)",
        "meta_object_id": "2022-170A",
        "meta_epoch": "2025-12-27T00:34:31.959264",
        "meta_mean_motion": 1.00270591,
        "meta_eccentricity": 0.0002431,
        "meta_inclination": 0.0146,
        "meta_ra_of_asc_node": 281.3118,
        "meta_arg_of_pericenter": 356.1117,
        "meta_mean_anomaly": 93.8733,
        "meta_ephemeris_type": 0,
        "meta_classification_type": "U",
        "meta_norad_cat_id": 54741,
        "meta_element_set_no": 999,
        "meta_rev_at_epoch": 1116,
        "meta_bstar": 0,
        "meta_mean_motion_dot": -1.4e-06,
        "meta_mean_motion_ddot": 0,
        "tle_line1": "1 54741U 22170A   25361.02398101 -.00000140  00000+0  00000+0 0  9998",
        "tle_line2": "2 54741   0.0146 281.3118 0002431 356.1117  93.8733  1.00270591 11169"
      },
      "geometry": {
        "type": "Point",
        "coordinates": [
          160.28006069781284,
          -0.0026548415466657307
        ]
      }
    },
    {
      "type": "Feature",
      "properties": {
        "norad_id": 54742,
        "name": "GALAXY 36 (G-36)",
        "group": "intelsat",
        "lat": 0.021172857558594983,
        "lon": 164.41185498472046,
        "alt_km": 35787.99266154404,
        "timestamp": "2025-12-27T10:28:58.458285+00:00",
        "meta_object_name": "GALAXY 36 (G-36)",
        "meta_object_id": "2022-170B",
        "meta_epoch": "2025-12-27T02:18:24.659136",
        "meta_mean_motion": 1.00271564,
        "meta_eccentricity": 4.48e-05,
        "meta_inclination": 0.0235,
        "meta_ra_of_asc_node": 104.7183,
        "meta_arg_of_pericenter": 225.8754,
        "meta_mean_anomaly": 70.8504,
        "meta_ephemeris_type": 0,
        "meta_classification_type": "U",
        "meta_norad_cat_id": 54742,
        "meta_element_set_no": 999,
        "meta_rev_at_epoch": 1104,
        "meta_bstar": 0,
        "meta_mean_motion_dot": -1.63e-06,
        "meta_mean_motion_ddot": 0,
        "tle_line1": "1 54742U 22170B   25361.09611874 -.00000163  00000+0  00000+0 0  9996",
        "tle_line2": "2 54742   0.0235 104.7183 0000448 225.8754  70.8504  1.00271564 11043"
      },
      "geometry": {
        "type": "Point",
        "coordinates": [
          164.41185498472046,
          0.021172857558594983
        ]
      }
    },
    {
      "type": "Feature",
      "properties": {
        "norad_id": 57493,
        "name": "GALAXY 37 (G-37)",
        "group": "intelsat",
        "lat": 0.028340880450441478,
        "lon": 126.38564248863698,
        "alt_km": 35794.30020318321,
        "timestamp": "2025-12-27T10:28:58.458297+00:00",
        "meta_object_name": "GALAXY 37 (G-37)",
        "meta_object_id": "2023-112A",
        "meta_epoch": "2025-12-27T00:24:47.890080",
        "meta_mean_motion": 1.00271956,
        "meta_eccentricity": 0.0002204,
        "meta_inclination": 0.0129,
        "meta_ra_of_asc_node": 45.069,
        "meta_arg_of_pericenter": 234.1705,
        "meta_mean_anomaly": 55.7071,
        "meta_ephemeris_type": 0,
        "meta_classification_type": "U",
        "meta_norad_cat_id": 57493,
        "meta_element_set_no": 999,
        "meta_rev_at_epoch": 881,
        "meta_bstar": 0,
        "meta_mean_motion_dot": 7e-07,
        "meta_mean_motion_ddot": 0,
        "tle_line1": "1 57493U 23112A   25361.01722095  .00000070  00000+0  00000+0 0  9995",
        "tle_line2": "2 57493   0.0129  45.0690 0002204 234.1705  55.7071  1.00271956  8819"
      },
      "geometry": {
        "type": "Point",
        "coordinates": [
          126.38564248863698,
          0.028340880450441478
        ]
      }
    }
  ]
}